{
  "type": "FeatureCollection",
  "features": [
    {
      "type": "Feature",
      "properties": {
        "norad_id": 66994,
        "name": "2025-292B",
        "group": "last-30-days",
        "lat": 77.15161731927525,
        "lon": -85.14914277440118,
        "alt_km": 555.477906621717,
        "timestamp": "2025-12-12T03:50:51.179339+00:00",
        "meta_object_name": "2025-292B",
        "meta_object_id": "2025-292B",
        "meta_epoch": "2025-12-11T21:01:03.751968",
        "meta_mean_motion": 15.04515803,
        "meta_eccentricity": 0.0014079,
        "meta_inclination": 97.6549,
        "meta_ra_of_asc_node": 58.4345,
        "meta_arg_of_pericenter": 277.2072,
        "meta_mean_anomaly": 82.7553,
        "meta_ephemeris_type": 0,
        "meta_classification_type": "U",
        "meta_norad_cat_id": 66994,
        "meta_element_set_no": 999,
        "meta_rev_at_epoch": 26,
        "meta_bstar": 0.00010044,
        "meta_mean_motion_dot": 1.347e-05,
        "meta_mean_motion_ddot": 0,
        "tle_line1": "1 66994U 25292B   25345.87573787  .00001347  00000+0  10044-3 0  9991",
        "tle_line2": "2 66994  97.6549  58.4345 0014079 277.2072  82.7553 15.04515803   263"
      },
      "geometry": {
        "type": "Point",
        "coordinates": [
          -85.14914277440118,
          77.15161731927525
        ]
      }
    }
  ]
}